[{"OBJECT_NAME":"JILIN-1 08","OBJECT_ID":"2018-008F","EPOCH":"2026-03-09T22:37:53.184288","MEAN_MOTION":15.32205976,"ECCENTRICITY":0.00081321,"INCLINATION":97.1902,"RA_OF_ASC_NODE":90.9961,"ARG_OF_PERICENTER":76.0646,"MEAN_ANOMALY":284.15,"EPHEMERIS_TYPE":0,"CLASSIFICATION_TYPE":"U","NORAD_CAT_ID":43160,"ELEMENT_SET_NO":999,"REV_AT_EPOCH":44974,"BSTAR":0.00036689195,"MEAN_MOTION_DOT":0.00011349,"MEAN_MOTION_DDOT":0},{"OBJECT_NAME":"STARLINK-33936","OBJECT_ID":"2025-101M","EPOCH":"2026-03-09T03:31:39.035712","MEAN_MOTION":15.27589114,"ECCENTRICITY":0.00014476,"INCLINATION":43.0037,"RA_OF_ASC_NODE":0.908,"ARG_OF_PERICENTER":286.5421,"MEAN_ANOMALY":73.5271,"EPHEMERIS_TYPE":0,"CLASSIFICATION_TYPE":"U","NORAD_CAT_ID":64005,"ELEMENT_SET_NO":999,"REV_AT_EPOCH":4697,"BSTAR":0.0014286357,"MEAN_MOTION_DOT":0.00039271,"MEAN_MOTION_DDOT":0}]
